CSS (TIANHE)            
1 48274U 21035A   24283.52869379  .00039351  00000+0  40127-3 0  9991
2 48274  41.4657 105.7300 0003347 163.5211 196.5738 15.64323843196987
